25676,GLOBALSTAR M045,1999,117.35,-1.0,-,52.0,Inactive,0,LEO,Kazakhstan,Globalstar,Unknown,Unknown,Unknown,1 25676U 99019A   25118.89186855 -.00000093  00000+0  81178-5 0  9993,2 25676  51.9962  85.7686 0000541  79.2280 297.4915 12.27061452187348,12.27061452,5.41e-05,LEO
25677,GLOBALSTAR M019,1999,118.63,-1.0,-,51.99,Inactive,0,LEO,Kazakhstan,Globalstar,Unknown,Unknown,Unknown,1 25677U 99019B   25118.71758319 -.00000209  00000+0 -12379-2 0  9999,2 25677  51.9871 213.1521 0001489 201.1988 316.4312 12.13874399179134,12.13874399,0.0001489,LEO
25678,GLOBALSTAR M044,1999,120.98,-1.0,-,51.99,Inactive,0,LEO,Kazakhstan,Globalstar,Unknown,Unknown,Unknown,1 25678U 99019C   25118.82732413 -.00000045  00000+0  53274-3 0  9996,2 25678  51.9942 158.0342 0006113 304.4831 226.8363 11.90249291165445,11.90249291,0.0006113,LEO
25679,GLOBALSTAR M042,1999,117.83,-1.0,-,52.0,Inactive,0,LEO,Kazakhstan,Globalstar,Unknown,Unknown,Unknown,1 25679U 99019D   25118.68614727 -.00000047  00000+0  42493-3 0  9991,2 25679  52.0001 190.6975 0003195 192.6845 333.1659 12.22082010179206,12.2208201,0.0003195,LEO
25770,GLOBALSTAR M025,1999,128.28,-1.0,-,51.98,Inactive,0,MEO,USA,Globalstar,Unknown,Unknown,Unknown,1 25770U 99031A   25118.81805510 -.00000069  00000+0 -52717-4 0  9990,2 25770  51.9816 273.6392 0002113  85.5077  63.4727 11.22558060476167,11.2255806,0.0002113,MEO
25771,GLOBALSTAR M049,1999,129.48,-1.0,-,51.99,Inactive,0,MEO,USA,Globalstar,Unknown,Unknown,Unknown,1 25771U 99031B   25118.91391631 -.00000117  00000+0 -18022-2 0  9999,2 25771  51.9885 305.7055 0001931 288.5757  71.4829 11.12113006111944,11.12113006,0.0001931,MEO
25772,GLOBALSTAR M047,1999,127.22,-1.0,-,51.98,Inactive,0,LEO,USA,Globalstar,Unknown,Unknown,Unknown,1 25772U 99031C   25118.69709601 -.00000058  00000+0  33080-3 0  9990,2 25772  51.9844 307.8947 0016657 175.2691 184.8274 11.31927765465506,11.31927765,0.0016657,LEO
25773,GLOBALSTAR M052,1999,129.14,-1.0,-,51.99,Inactive,0,MEO,USA,Globalstar,Unknown,Unknown,Unknown,1 25773U 99031D   25118.92845743 -.00000052  00000+0  45131-3 0  9999,2 25773  51.9884  55.0337 0002722  84.3268 357.0408 11.15058806473015,11.15058806,0.0002722,MEO
